ONEWEB-0235             
1 48771U 21045E   24191.64302491  .00000151  00000+0  36692-3 0  9990
2 48771  87.9019  39.9964 0002241  66.5221 293.6145 13.15547536151359
ONEWEB-0242             
1 48772U 21045F   24191.94091686  .00000052  00000+0  10424-3 0  9990
2 48772  87.9018  39.9253 0001974  80.1078 280.0275 13.15546900151431
ONEWEB-0241             
1 48773U 21045G   24191.62401018 -.00000051  00000+0 -16852-3 0  9992
2 48773  87.9028  40.0374 0001665  70.9476 289.1834 13.15547188151302
ONEWEB-0243             
1 48774U 21045H   24191.57965295  .00000156  00000+0  38002-3 0  9994
2 48774  87.9029  40.0056 0002147  69.8244 290.3117 13.15547527152459
ONEWEB-0222             
1 48775U 21045J   24191.94329871  .00000303  00000+0  77071-3 0  9993
2 48775  87.9015  39.9342 0001800  76.0002 284.1329 13.15549025151413
ONEWEB-0244             
1 48776U 21045K   24191.58915249  .00000086  00000+0  19416-3 0  9991
2 48776  87.9017  39.9872 0001994  82.2878 277.8479 13.15548654151937
ONEWEB-0247             
1 48777U 21045L   24191.66203596  .00000067  00000+0  14366-3 0  9994
2 48777  87.9026  40.0153 0002551  63.6799 296.4593 13.15547421151382
ONEWEB-0245             
1 48778U 21045M   24191.65728202  .00000109  00000+0  25504-3 0  9993
2 48778  87.9018  40.0045 0001650  78.7654 281.3662 13.15547584151357
